STARLINK-1890           
1 47173U 20088BD  21198.82038586 -.00000955  00000-0 -45270-4 0  9994
2 47173  53.0560 354.6740 0001270 114.3957 245.7165 15.06394626 36238
STARLINK-1891           
1 47174U 20088BE  21198.82869396  .00001711  00000-0  13371-3 0  9991
2 47174  53.0550 354.6398 0001862 104.7638 255.3558 15.06406679 36238
STARLINK-1895           
1 47175U 20088BF  21198.69416511  .00001095  00000-0  92410-4 0  9991
2 47175  53.0561 335.2231 0001369 105.4503 254.6637 15.06397849 36499
STARLINK-1907           
1 47177U 20088BH  21199.34196025  .00000338  00000-0  41614-4 0  9990
2 47177  53.0561 342.3389 0001396  94.7174 265.3975 15.06398458 36747
STARLINK-1912           
1 47178U 20088BJ  21199.32261777 -.00000740  00000-0 -30792-4 0  9990
2 47178  53.0556 352.4082 0001496 114.8514 245.2631 15.06396120 36309
STARLINK-1913           
1 47179U 20088BK  21198.84623032  .00001119  00000-0  93982-4 0  9992
2 47179  53.0548   4.5675 0001457 103.3595 256.7557 15.06403153 36098
STARLINK-1914           
1 47180U 20088BL  21199.24061540 -.00000972  00000-0 -46363-4 0  9998
2 47180  53.0544   2.7988 0001217 121.2558 238.8550 15.06397759 36408
STARLINK-1927           
1 47181U 20088BM  21198.75314287  .00000668  00000-0  63742-4 0  9993
2 47181  53.0564 334.9658 0001135 122.0969 238.0131 15.06397551 36507
LUCAS (JDRS-1)          
1 47202U 20089A   21199.12063397 -.00000233  00000-0  00000+0 0  9995
2 47202   0.0466 103.0203 0002963 354.8739 332.4546  1.00269857  2402
FALCON EYE 2            
1 47226U 20090A   21199.49264474  .00000088  00000-0  16549-4 0  9999
2 47226  97.8604 274.0017 0001625  80.6188 279.5209 14.84913690 33907
GONETS-M 20             
1 47227U 20091A   21199.47597450  .00000017  00000-0  51350-4 0  9993
2 47227  82.5059 337.9581 0021350 136.4151 223.8622 12.42885539 28250
GONETS-M 21             
1 47228U 20091B   21199.45232110  .00000050  00000-0  28545-3 0  9997
2 47228  82.4988 337.7973 0015306 147.6845 212.5173 12.42865365 28242
GONETS-M 22             
1 47229U 20091C   21199.50502110  .00000041  00000-0  22235-3 0  9994
2 47229  82.5044 337.8258 0022414 129.9020 230.4033 12.42875782 28248
COSMOS 2548             
1 47230U 20091D   21199.42883221  .00000009  00000-0 -69499-5 0  9992
2 47230  82.5012 337.8458 0015793 147.2222 212.9840 12.42880237 28248
GAOFEN 14               
1 47231U 20092A   21199.48532760  .00000771  00000-0  33131-4 0  9997
2 47231  97.4187 275.7012 0000657 203.8234 277.1831 15.25645211 34197
GECAM-A                 
1 47234U 20094A   21199.30532912  .00000279  00000-0  13967-4 0  9990
2 47234  28.9996  50.9595 0012569  42.7566 317.4008 14.90745530 32883
GECAM-B                 
1 47235U 20094B   21198.95736730  .00000301  00000-0  16166-4 0  9995
2 47235  28.9995  52.9872 0012869  38.4992 321.6520 14.90823847 32830
SXM-7                   
1 47240U 20096A   21199.29215817 -.00000021  00000-0  00000+0 0  9994
2 47240   0.0193  55.9173 0002717 305.4609 284.8000  1.00273271  2339
IPM 2 & BREEZE-M R/B    
1 47242U 20097A   21198.87378586 -.00000082  00000-0  00000-0 0  9991
2 47242   0.5299 104.3243 0086926 220.0277  35.0618  0.95297812  2158
STRIX-ALPHA             
1 47253U 20098A   21199.44093477  .00001460  00000-0  67648-4 0  9996
2 47253  97.3559  92.3485 0011854 266.9530 147.1630 15.21600758 32688
CMS-01                  
1 47256U 20099A   21198.94424384 -.00000163  00000-0  00000-0 0  9994
2 47256   0.0379 112.2832 0003306 141.7228 104.9324  1.00270526  2199
ONEWEB-0102             
1 47258U 20100A   21198.90353497 -.00000448  00000-0 -12801-2 0  9992
2 47258  87.8921 347.6442 0001919  85.6192 274.5155 13.12440673 29241
ONEWEB-0109             
1 47259U 20100B   21198.91411468 -.00000220  00000-0 -64612-3 0  9993
2 47259  87.8893 347.4921 0001684  82.1371 277.9949 13.12444480 29079
ONEWEB-0110             
1 47260U 20100C   21198.93526900  .00000427  00000-0  11508-2 0  9997
2 47260  87.8942 347.5531 0001846  82.3387 277.7951 13.12445502 29249
ONEWEB-0111             
1 47261U 20100D   21198.89081309 -.00000234  00000-0 -68515-3 0  9991
2 47261  87.8944 347.5878 0001980  89.2952 270.8404 13.12444320 29074
ONEWEB-0114             
1 47262U 20100E   21198.92259044  .00000065  00000-0  14470-3 0  9990
2 47262  87.8869 347.4732 0001580  88.5924 271.5385 13.12442027 29030
ONEWEB-0117             
1 47263U 20100F   21198.91621596 -.00000387  00000-0 -11110-2 0  9991
2 47263  87.8894 347.5712 0001818  88.4748 271.6589 13.12442637 29040
ONEWEB-0118             
1 47264U 20100G   21198.94377655  .00000461  00000-0  12459-2 0  9997
2 47264  87.8929 347.5706 0001589  89.6232 270.5079 13.12445360 29249
ONEWEB-0119             
1 47265U 20100H   21199.35458633 -.00000248  00000-0 -72465-3 0  9999
2 47265  87.8919 347.5634 0001881  88.1769 271.9575 13.12440306 29277
ONEWEB-0120             
1 47266U 20100J   21198.92682801  .00000205  00000-0  53503-3 0  9991
2 47266  87.8993 347.5008 0001626  85.7650 274.3664 13.12445602 29241
ONEWEB-0121             
1 47267U 20100K   21198.91198160 -.00000283  00000-0 -82103-3 0  9997
2 47267  87.9001 347.5530 0002067  91.0340 269.1026 13.12440255 29152
ONEWEB-0122             
1 47268U 20100L   21199.36306214 -.00000394  00000-0 -11297-2 0  9997
2 47268  87.8909 347.4644 0001650  92.3149 267.8168 13.12445043 29121
ONEWEB-0123             
1 47269U 20100M   21199.35670839 -.00000301  00000-0 -87092-3 0  9999
2 47269  87.8934 347.5173 0001744  92.5288 267.6040 13.12444277 29268
ONEWEB-0124             
1 47270U 20100N   21198.88446719 -.00000026  00000-0 -10883-3 0  9994
2 47270  87.8903 347.5759 0001880  92.0521 268.0823 13.12438264 29085
ONEWEB-0125             
1 47271U 20100P   21198.93952956  .00000511  00000-0  13847-2 0  9995
2 47271  87.8978 347.5687 0001850  95.9384 264.1955 13.12444193 29153
ONEWEB-0126             
1 47272U 20100Q   21198.88870463 -.00000185  00000-0 -54925-3 0  9994
2 47272  87.8934 347.6569 0001729  84.2716 275.8609 13.12437769 29214
ONEWEB-0127             
1 47273U 20100R   21198.92894516  .00000268  00000-0  70828-3 0  9995
2 47273  87.8911 347.5690 0001596  86.4356 273.6955 13.12441614 29247
ONEWEB-0128             
1 47274U 20100S   21198.87175117  .00000340  00000-0  90902-3 0  9995
2 47274  87.8932 347.5720 0001932  86.5378 273.5972 13.12437106 29254
ONEWEB-0129             
1 47275U 20100T   21198.93106844  .00000255  00000-0  67273-3 0  9994
2 47275  87.8944 347.4856 0001199   1.4070 358.7061 13.12444652 29199
ONEWEB-0130             
1 47276U 20100U   21198.88022871  .00000139  00000-0  35212-3 0  9995
2 47276  87.8966 347.5534 0002005  79.1276 281.0078 13.12440163 29150
ONEWEB-0131             
1 47277U 20100V   21198.87599244  .00000261  00000-0  69059-3 0  9990
2 47277  87.8966 347.5017 0001846  88.1555 271.9785 13.12438244 29193
ONEWEB-0132             
1 47278U 20100W   21198.90986180 -.00000558  00000-0 -15855-2 0  9999
2 47278  87.8926 347.6467 0001629  97.4865 262.6449 13.12442753 29099
ONEWEB-0133             
1 47279U 20100X   21198.92470943  .00000168  00000-0  43046-3 0  9996
2 47279  87.8952 347.5113 0001746  84.9588 275.1740 13.12445481 29251
ONEWEB-0134             
1 47280U 20100Y   21198.89293267 -.00000280  00000-0 -81466-3 0  9991
2 47280  87.8919 347.5802 0002144  96.6599 263.4773 13.12438147 29220
ONEWEB-0135             
1 47281U 20100Z   21199.39482027  .00000446  00000-0  12053-2 0  9999
2 47281  87.8924 347.4629 0001735  81.7280 278.4046 13.12446419 29310
ONEWEB-0136             
1 47282U 20100AA  21198.88235447  .00000051  00000-0  10534-3 0  9990
2 47282  87.8948 347.5048 0002033  80.7244 279.4115 13.12442667 29177
ONEWEB-0137             
1 47283U 20100AB  21198.92044953 -.00000355  00000-0 -10219-2 0  9994
2 47283  87.8907 347.6450 0001391  92.2095 267.9192 13.12442819 29085
ONEWEB-0138             
1 47284U 20100AC  21198.89505179 -.00000308  00000-0 -89165-3 0  9998
2 47284  87.8912 347.6340 0001733  84.2265 275.9061 13.12444072 29166
ONEWEB-0139             
1 47285U 20100AD  21198.94166015  .00000600  00000-0  16325-2 0  9997
2 47285  87.8965 347.6052 0001975  89.0796 271.0559 13.12442989 29248
ONEWEB-0140             
1 47286U 20100AE  21198.88659366 -.00000084  00000-0 -26840-3 0  9999
2 47286  87.8941 347.6012 0001914  80.6221 279.5124 13.12445413 29204
ONEWEB-0141             
1 47287U 20100AF  21198.87811435  .00000236  00000-0  61962-3 0  9997
2 47287  87.8915 347.6241 0001741  85.5082 274.6246 13.12439737 29187
ONEWEB-0142             
1 47288U 20100AG  21198.90139293  .00000638  00000-0  17384-2 0  9991
2 47288  87.8941 347.6742 0001534 100.4550 259.6752 13.12435606 29186
ONEWEB-0143             
1 47289U 20100AH  21198.93316219  .00000384  00000-0  10329-2 0  9990
2 47289  87.8964 347.5210 0001797  89.8931 270.2403 13.12446135 29164
ONEWEB-0144             
1 47290U 20100AJ  21198.90776349 -.00000388  00000-0 -11144-2 0  9995
2 47290  87.8890 347.4755 0002102  92.3208 267.8161 13.12441910 29084
ONEWEB-0145             
1 47291U 20100AK  21198.87387510  .00000329  00000-0  87859-3 0  9990
2 47291  87.8939 347.5841 0001792  84.4207 275.7126 13.12442927 29270
ONEWEB-0146             
1 47292U 20100AL  21198.86964119  .00000399  00000-0  10738-2 0  9994
2 47292  87.8927 347.6279 0001842  85.8481 274.2858 13.12443976 29180
ONEWEB-0147             
1 47293U 20100AM  21198.91834589 -.00000101  00000-0 -31474-3 0  9992
2 47293  87.8944 347.5943 0002003  60.1785 299.9542 13.12445279 29081
YUANGUANG               
1 47296U 20102A   21199.49273172  .00000859  00000-0  43988-4 0  9998
2 47296  97.4350 296.4848 0008013 168.1189 320.7302 15.19244856 31629
HAISI 1                 
1 47297U 20102B   21199.48843822  .00000301  00000-0  17236-4 0  9992
2 47297  97.4330 296.5860 0006732 150.4135 342.2290 15.19731809 31617
